start=new Date('2022-02-14T00:00:00.000Z').valueOf();
sats=[{"OBJECT_ID":"2020-073R","SITE":"AFETR","PERIOD":"95.593","COUNTRY_CODE":"US","MEAN_MOTION":"15.06387327","NORAD_CAT_ID":"46685","FILE":"3299685","RCS_SIZE":"LARGE","MEAN_ELEMENT_THEORY":"SGP4","TLE_LINE1":"1 46685U 20073R   22044.51561401 -.00003204  00000-0 -19636-3 0  9995","LAUNCH_DATE":"2020-10-18","CENTER_NAME":"EARTH","GP_ID":"195893424","ECCENTRICITY":"0.00014790","EPOCH":"2022-02-13T12:22:29.050464","BSTAR":"-0.00019636000000","CLASSIFICATION_TYPE":"U","TIME_SYSTEM":"UTC","SEMIMAJOR_AXIS":"6925.387","ELEMENT_SET_NO":"999","RA_OF_ASC_NODE":"83.8312","INCLINATION":"53.0573","DECAY_DATE":null,"PERIAPSIS":"546.228","REV_AT_EPOCH":"7306","REF_FRAME":"TEME","EPHEMERIS_TYPE":"0","ARG_OF_PERICENTER":"62.8609","TLE_LINE2":"2 46685  53.0573  83.8312 0001479  62.8609 297.2531 15.06387327 73068","MEAN_MOTION_DDOT":"0.0000000000000","MEAN_ANOMALY":"297.2531","MEAN_MOTION_DOT":"-0.00003204","OBJECT_TYPE":"PAYLOAD","APOAPSIS":"548.277","OBJECT_NAME":"STARLINK-1781"},{"REV_AT_EPOCH":"7306","PERIAPSIS":"546.117","EPHEMERIS_TYPE":"0","ARG_OF_PERICENTER":"63.7786","TLE_LINE2":"2 46686  53.0550  83.9059 0001491  63.7786 296.3356 15.06421007 73062","REF_FRAME":"TEME","OBJECT_TYPE":"PAYLOAD","MEAN_MOTION_DDOT":"0.0000000000000","MEAN_MOTION_DOT":"0.00000697","MEAN_ANOMALY":"296.3356","OBJECT_NAME":"STARLINK-1783","APOAPSIS":"548.182","COUNTRY_CODE":"US","NORAD_CAT_ID":"46686","MEAN_MOTION":"15.06421007","FILE":"3299685","OBJECT_ID":"2020-073S","SITE":"AFETR","PERIOD":"95.591","MEAN_ELEMENT_THEORY":"SGP4","TLE_LINE1":"1 46686U 20073S   22044.49714992  .00000697  00000-0  65637-4 0  9992","LAUNCH_DATE":"2020-10-18","CENTER_NAME":"EARTH","RCS_SIZE":"LARGE","CLASSIFICATION_TYPE":"U","TIME_SYSTEM":"UTC","ECCENTRICITY":"0.00014910","GP_ID":"195893674","EPOCH":"2022-02-13T11:55:53.753088","BSTAR":"0.00006563700000","DECAY_DATE":null,"SEMIMAJOR_AXIS":"6925.284","ELEMENT_SET_NO":"999","RA_OF_ASC_NODE":"83.9059","INCLINATION":"53.0550"},{"SEMIMAJOR_AXIS":"6925.426","RA_OF_ASC_NODE":"49.8537","ELEMENT_SET_NO":"999","INCLINATION":"53.0546","DECAY_DATE":null,"ECCENTRICITY":"0.00016640","GP_ID":"195893913","BSTAR":"-0.00004127600000","EPOCH":"2022-02-13T06:50:04.339680","TIME_SYSTEM":"UTC","CLASSIFICATION_TYPE":"U","RCS_SIZE":"LARGE","MEAN_ELEMENT_THEORY":"SGP4","TLE_LINE1":"1 46687U 20073T   22044.28477245 -.00000896  00000-0 -41276-4 0  9993","CENTER_NAME":"EARTH","LAUNCH_DATE":"2020-10-18","SITE":"AFETR","OBJECT_ID":"2020-073T","PERIOD":"95.594","NORAD_CAT_ID":"46687","COUNTRY_CODE":"US","MEAN_MOTION":"15.06374578","FILE":"3299685","APOAPSIS":"548.444","OBJECT_NAME":"STARLINK-1784","MEAN_MOTION_DOT":"-0.00000896","MEAN_MOTION_DDOT":"0.0000000000000","MEAN_ANOMALY":"305.4654","OBJECT_TYPE":"PAYLOAD","REF_FRAME":"TEME","ARG_OF_PERICENTER":"54.6490","EPHEMERIS_TYPE":"0","TLE_LINE2":"2 46687  53.0546  49.8537 0001664  54.6490 305.4654 15.06374578 73527","PERIAPSIS":"546.139","REV_AT_EPOCH":"7352"},{"REV_AT_EPOCH":"7431","PERIAPSIS":"546.108","TLE_LINE2":"2 46689  53.0557  83.8700 0001651  62.3998 297.7158 15.06387817 74316","ARG_OF_PERICENTER":"62.3998","EPHEMERIS_TYPE":"0","REF_FRAME":"TEME","OBJECT_TYPE":"PAYLOAD","MEAN_MOTION_DDOT":"0.0000000000000","MEAN_ANOMALY":"297.7158","MEAN_MOTION_DOT":"-0.00003213","OBJECT_NAME":"STARLINK-1788","APOAPSIS":"548.394","FILE":"3299685","NORAD_CAT_ID":"46689","COUNTRY_CODE":"US","MEAN_MOTION":"15.06387817","PERIOD":"95.593","SITE":"AFETR","OBJECT_ID":"2020-073V","CENTER_NAME":"EARTH","LAUNCH_DATE":"2020-10-18","MEAN_ELEMENT_THEORY":"SGP4","TLE_LINE1":"1 46689U 20073V   22044.50824157 -.00003213  00000-0 -19699-3 0  9997","RCS_SIZE":"LARGE","TIME_SYSTEM":"UTC","CLASSIFICATION_TYPE":"U","BSTAR":"-0.00019699000000","EPOCH":"2022-02-13T12:11:52.071648","GP_ID":"195894663","ECCENTRICITY":"0.00016510","DECAY_DATE":null,"INCLINATION":"53.0557","ELEMENT_SET_NO":"999","SEMIMAJOR_AXIS":"6925.386","RA_OF_ASC_NODE":"83.8700"},{"REF_FRAME":"TEME","ARG_OF_PERICENTER":"72.6736","EPHEMERIS_TYPE":"0","TLE_LINE2":"2 46690  53.0543  58.8454 0001465  72.6736 287.4413 15.06390237 73418","REV_AT_EPOCH":"7341","PERIAPSIS":"546.229","APOAPSIS":"548.258","OBJECT_NAME":"STARLINK-1789","MEAN_MOTION_DOT":"0.00002249","MEAN_MOTION_DDOT":"0.0000000000000","MEAN_ANOMALY":"287.4413","OBJECT_TYPE":"PAYLOAD","RCS_SIZE":"LARGE","MEAN_ELEMENT_THEORY":"SGP4","TLE_LINE1":"1 46690U 20073W   22044.50869127  .00002249  00000-0  16987-3 0  9998","CENTER_NAME":"EARTH","LAUNCH_DATE":"2020-10-18","SITE":"AFETR","OBJECT_ID":"2020-073W","PERIOD":"95.593","COUNTRY_CODE":"US","MEAN_MOTION":"15.06390237","NORAD_CAT_ID":"46690","FILE":"3299685","RA_OF_ASC_NODE":"58.8454","SEMIMAJOR_AXIS":"6925.378","ELEMENT_SET_NO":"999","INCLINATION":"53.0543","DECAY_DATE":null,"GP_ID":"195892925","ECCENTRICITY":"0.00014650","BSTAR":"0.00016987000000","EPOCH":"2022-02-13T12:12:30.925728","TIME_SYSTEM":"UTC","CLASSIFICATION_TYPE":"U"},{"DECAY_DATE":null,"INCLINATION":"53.0556","ELEMENT_SET_NO":"999","SEMIMAJOR_AXIS":"6925.396","RA_OF_ASC_NODE":"69.4685","CLASSIFICATION_TYPE":"U","TIME_SYSTEM":"UTC","EPOCH":"2022-02-13T09:00:06.810048","BSTAR":"-0.00030761000000","ECCENTRICITY":"0.00017730","GP_ID":"195893175","CENTER_NAME":"EARTH","LAUNCH_DATE":"2020-10-18","MEAN_ELEMENT_THEORY":"SGP4","TLE_LINE1":"1 46691U 20073X   22044.37507882 -.00004859  00000-0 -30761-3 0  9998","RCS_SIZE":"LARGE","FILE":"3299685","COUNTRY_CODE":"US","NORAD_CAT_ID":"46691","MEAN_MOTION":"15.06384479","PERIOD":"95.593","OBJECT_ID":"2020-073X","SITE":"AFETR","OBJECT_NAME":"STARLINK-1790","APOAPSIS":"548.489","OBJECT_TYPE":"PAYLOAD","MEAN_ANOMALY":"296.9665","MEAN_MOTION_DDOT":"0.0000000000000","MEAN_MOTION_DOT":"-0.00004859","TLE_LINE2":"2 46691  53.0556  69.4685 0001773  63.1505 296.9665 15.06384479 73255","EPHEMERIS_TYPE":"0","ARG_OF_PERICENTER":"63.1505","REF_FRAME":"TEME","PERIAPSIS":"546.033","REV_AT_EPOCH":"7325"},{"OBJECT_ID":"2020-073Y","SITE":"AFETR","PERIOD":"95.593","COUNTRY_CODE":"US","MEAN_MOTION":"15.06385989","NORAD_CAT_ID":"46692","FILE":"3299685","RCS_SIZE":"LARGE","TLE_LINE1":"1 46692U 20073Y   22044.42713944 -.00003285  00000-0 -20181-3 0  9990","MEAN_ELEMENT_THEORY":"SGP4","CENTER_NAME":"EARTH","LAUNCH_DATE":"2020-10-18","ECCENTRICITY":"0.00015210","GP_ID":"195894413","EPOCH":"2022-02-13T10:15:04.847616","BSTAR":"-0.00020181000000","CLASSIFICATION_TYPE":"U","TIME_SYSTEM":"UTC","SEMIMAJOR_AXIS":"6925.391","ELEMENT_SET_NO":"999","RA_OF_ASC_NODE":"84.2146","INCLINATION":"53.0536","DECAY_DATE":null,"PERIAPSIS":"546.203","REV_AT_EPOCH":"7305","REF_FRAME":"TEME","EPHEMERIS_TYPE":"0","ARG_OF_PERICENTER":"65.4096","TLE_LINE2":"2 46692  53.0536  84.2146 0001521  65.4096 294.7052 15.06385989 73053","MEAN_MOTION_DDOT":"0.0000000000000","MEAN_ANOMALY":"294.7052","MEAN_MOTION_DOT":"-0.00003285","OBJECT_TYPE":"PAYLOAD","APOAPSIS":"548.310","OBJECT_NAME":"STARLINK-1791"},{"REF_FRAME":"TEME","ARG_OF_PERICENTER":"56.3286","EPHEMERIS_TYPE":"0","TLE_LINE2":"2 46693  53.0547  67.6504 0001655  56.3286 303.7860 15.06389929 73772","REV_AT_EPOCH":"7377","PERIAPSIS":"546.098","APOAPSIS":"548.391","OBJECT_NAME":"STARLINK-1792","MEAN_MOTION_DOT":"-0.00002358","MEAN_MOTION_DDOT":"0.0000000000000","MEAN_ANOMALY":"303.7860","OBJECT_TYPE":"PAYLOAD","RCS_SIZE":"LARGE","TLE_LINE1":"1 46693U 20073Z   22044.77684335 -.00002358  00000-0 -13950-3 0  9996","MEAN_ELEMENT_THEORY":"SGP4","LAUNCH_DATE":"2020-10-18","CENTER_NAME":"EARTH","SITE":"AFETR","OBJECT_ID":"2020-073Z","PERIOD":"95.593","NORAD_CAT_ID":"46693","COUNTRY_CODE":"US","MEAN_MOTION":"15.06389929","FILE":"3299888","SEMIMAJOR_AXIS":"6925.379","RA_OF_ASC_NODE":"67.6504","ELEMENT_SET_NO":"999","INCLINATION":"53.0547","DECAY_DATE":null,"ECCENTRICITY":"0.00016550","GP_ID":"195902255","BSTAR":"-0.00013950000000","EPOCH":"2022-02-13T18:38:39.265440","TIME_SYSTEM":"UTC","CLASSIFICATION_TYPE":"U"},{"ECCENTRICITY":"0.00014800","GP_ID":"195900382","EPOCH":"2022-02-13T19:13:09.097536","BSTAR":"-0.00027843000000","CLASSIFICATION_TYPE":"U","TIME_SYSTEM":"UTC","RA_OF_ASC_NODE":"47.5543","SEMIMAJOR_AXIS":"6925.319","ELEMENT_SET_NO":"999","INCLINATION":"53.0553","DECAY_DATE":null,"OBJECT_ID":"2020-073AA","SITE":"AFETR","PERIOD":"95.592","COUNTRY_CODE":"US","MEAN_MOTION":"15.06409797","NORAD_CAT_ID":"46694","FILE":"3299805","RCS_SIZE":"LARGE","MEAN_ELEMENT_THEORY":"SGP4","TLE_LINE1":"1 46694U 20073AA  22044.80079974 -.00004427  00000-0 -27843-3 0  9993","LAUNCH_DATE":"2020-10-18","CENTER_NAME":"EARTH","MEAN_MOTION_DDOT":"0.0000000000000","MEAN_MOTION_DOT":"-0.00004427","MEAN_ANOMALY":"230.6863","OBJECT_TYPE":"PAYLOAD","APOAPSIS":"548.208","OBJECT_NAME":"STARLINK-1793","REV_AT_EPOCH":"7408","PERIAPSIS":"546.159","REF_FRAME":"TEME","EPHEMERIS_TYPE":"0","ARG_OF_PERICENTER":"129.4257","TLE_LINE2":"2 46694  53.0553  47.5543 0001480 129.4257 230.6863 15.06409797 74088"},{"REV_AT_EPOCH":"7353","PERIAPSIS":"545.993","REF_FRAME":"TEME","TLE_LINE2":"2 46696  53.0553  49.5401 0001830  50.7459 309.3692 15.06384823 73539","ARG_OF_PERICENTER":"50.7459","EPHEMERIS_TYPE":"0","MEAN_MOTION_DDOT":"0.0000000000000","MEAN_MOTION_DOT":"-0.00005367","MEAN_ANOMALY":"309.3692","OBJECT_TYPE":"PAYLOAD","APOAPSIS":"548.527","OBJECT_NAME":"STARLINK-1795","PERIOD":"95.593","SITE":"AFETR","OBJECT_ID":"2020-073AC","FILE":"3299685","MEAN_MOTION":"15.06384823","COUNTRY_CODE":"US","NORAD_CAT_ID":"46696","RCS_SIZE":"LARGE","CENTER_NAME":"EARTH","LAUNCH_DATE":"2020-10-18","MEAN_ELEMENT_THEORY":"SGP4","TLE_LINE1":"1 46696U 20073AC  22044.35480994 -.00005367  00000-0 -34183-3 0  9992","BSTAR":"-0.00034183000000","EPOCH":"2022-02-13T08:30:55.578816","GP_ID":"195893675","ECCENTRICITY":"0.00018300","TIME_SYSTEM":"UTC","CLASSIFICATION_TYPE":"U","INCLINATION":"53.0553","SEMIMAJOR_AXIS":"6925.395","ELEMENT_SET_NO":"999","RA_OF_ASC_NODE":"49.5401","DECAY_DATE":null}];
